STARLINK-6279           
1 56411U 23061AP  26179.01248014 -.00000128  00000+0  48919-5 0  9991
2 56411  43.0015 284.2872 0001330 298.6810  61.3908 15.27571965173743
STARLINK-6278           
1 56412U 23061AQ  26179.62779291  .00000182  00000+0  16150-4 0  9995
2 56412  43.0025 280.3022 0001342 268.8185  91.2513 15.27573325173843
STARLINK-6258           
1 56413U 23061AR  26179.54712796  .00002050  00000+0  84001-4 0  9990
2 56413  43.0042 281.4136 0001765 272.3435  87.7215 15.27578711173829
STARLINK-5136           
1 56414U 23061AS  26179.58424543  .00000740  00000+0  36414-4 0  9994
2 56414  43.0015 280.8290 0001326 276.3517  83.7183 15.27578132173830
STARLINK-6260           
1 56416U 23061AU  26179.56592407  .00001108  00000+0  49799-4 0  9998
2 56416  43.0015 273.6565 0001221 267.0265  93.0447 15.27570199173919
STARLINK-6261           
1 56417U 23061AV  26179.57012017  .00000575  00000+0  30425-4 0  9997
2 56417  43.0053 280.7268 0001244 270.1127  89.9582 15.27568984173832
STARLINK-5356           
1 56418U 23061AW  26179.59916821  .00002172  00000+0  88394-4 0  9999
2 56418  43.0017 273.0402 0001516 267.1947  92.8731 15.27587379173924
STARLINK-5350           
1 56419U 23061AX  26179.58811032 -.00001427  00000+0 -42338-4 0  9999
2 56419  43.0010 280.8621 0001560 268.8313  91.2360 15.27569793173832
STARLINK-6272           
1 56420U 23061AY  26178.75689346  .00012870  00000+0  47692-3 0  9999
2 56420  42.9994 277.8988 0000495 299.6478  60.4325 15.27542149173795
STARLINK-6270           
1 56421U 23061AZ  26179.62310930  .00000543  00000+0  29252-4 0  9994
2 56421  43.0033 276.6298 0000893 268.6285  91.4464 15.27575848173887
STARLINK-6236           
1 56422U 23061BA  26179.61717413  .00000632  00000+0  32502-4 0  9992
2 56422  43.0012 273.1762 0001719 271.8081  88.2574 15.27574767173921
STARLINK-6239           
1 56423U 23061BB  26179.61075108  .00000413  00000+0  24524-4 0  9993
2 56423  43.0022 273.1275 0001258 270.9591  89.1117 15.27573523173928
STARLINK-6242           
1 56424U 23061BC  26179.62488239  .00000203  00000+0  16905-4 0  9999
2 56424  43.0020 273.2349 0000955 280.6417  79.4327 15.27576809173923
STARLINK-6224           
1 56425U 23061BD  26179.62100718  .00002043  00000+0  83708-4 0  9992
2 56425  43.0008 273.2046 0001322 271.5624  88.5076 15.27591203173929
STARLINK-5352           
1 56426U 23061BE  26179.57106258  .00003070  00000+0  12109-3 0  9999
2 56426  43.0007 273.6782 0001278 270.6415  89.4291 15.27565001173913
STARLINK-5724           
1 56427U 23061BF  26179.57362839  .00000478  00000+0  26907-4 0  9990
2 56427  43.0026 273.6963 0001122 290.0669  70.0062 15.27576019173914
STARLINK-6238           
1 56428U 23061BG  26179.56335069  .00000645  00000+0  32968-4 0  9995
2 56428  42.9997 273.6284 0001160 270.5570  89.5149 15.27577814173917
STARLINK-6264           
1 56429U 23061BH  26179.56720679  .00000631  00000+0  32454-4 0  9996
2 56429  43.0022 273.6562 0001249 269.7460  90.3249 15.27573330173914
STARLINK-5990           
1 56448U 23064A   26179.57357913 -.00000072  00000+0  17793-5 0  9998
2 56448  69.9984 224.9444 0003593 267.1253  92.9495 14.98328758171854
STARLINK-5993           
1 56449U 23064B   26179.52752948  .00003461  00000+0  29783-3 0  9995
2 56449  69.9984 225.1848 0003243 267.4082  92.6706 14.98313200171848
STARLINK-5970           
1 56450U 23064C   26179.50264468  .00000071  00000+0  13743-4 0  9994
2 56450  69.9984 225.0985 0003397 268.2488  91.8282 14.98329122171840
STARLINK-5985           
1 56451U 23064D   26179.52335068  .00000253  00000+0  29024-4 0  9993
2 56451  69.9985 225.1698 0003188 271.4033  88.6760 14.98330321171842
STARLINK-5986           
1 56452U 23064E   26179.51917874 -.00000263  00000+0 -14267-4 0  9990
2 56452  69.9985 225.1559 0003436 269.0029  91.0737 14.98328624171848
STARLINK-5935           
1 56453U 23064F   26179.51498095  .00001902  00000+0  16709-3 0  9991
2 56453  69.9984 225.1404 0003580 269.4942  90.5807 14.98346689171848
STARLINK-5959           
1 56454U 23064G   26179.56090466  .00000532  00000+0  52414-4 0  9999
2 56454  69.9981 224.9000 0003717 266.6154  93.4580 14.98321414171851
STARLINK-5987           
1 56455U 23064H   26179.55671592  .00000291  00000+0  32171-4 0  9994
2 56455  69.9983 224.8844 0003676 268.8535  91.2203 14.98330899171855
STARLINK-5995           
1 56456U 23064J   26179.50249383 -.00000180  00000+0 -72856-5 0  9993
2 56456  69.9984 225.0968 0003640 267.5652  92.5091 14.98322994171849
STARLINK-5994           
1 56457U 23064K   26179.49830293  .00000278  00000+0  31065-4 0  9990
2 56457  69.9982 225.0815 0003551 269.6466  90.4286 14.98331876171848
STARLINK-6050           
1 56458U 23064L   26179.57341208  .00000592  00000+0  57406-4 0  9999
2 56458  69.9983 224.9417 0003831 268.8328  91.2393 14.98330631171852
STARLINK-6048           
1 56459U 23064M   26179.54018506  .00000365  00000+0  38389-4 0  9996
2 56459  69.9981 224.8281 0003659 268.8009  91.2731 14.98330345171840
