OBJECT_NAME,OBJECT_ID,EPOCH,MEAN_MOTION,ECCENTRICITY,INCLINATION,RA_OF_ASC_NODE,ARG_OF_PERICENTER,MEAN_ANOMALY,EPHEMERIS_TYPE,CLASSIFICATION_TYPE,NORAD_CAT_ID,ELEMENT_SET_NO,REV_AT_EPOCH,BSTAR,MEAN_MOTION_DOT,MEAN_MOTION_DDOT
STARLINK-6279,2023-061AP,2026-06-28T00:17:58.284096,15.27571965,.00013309,43.0015,284.2872,298.6810,61.3908,0,U,56411,999,17374,.4891915E-5,-.128E-5,0
STARLINK-6278,2023-061AQ,2026-06-28T15:04:01.307424,15.27573325,.0001342,43.0025,280.3022,268.8185,91.2513,0,U,56412,999,17384,.16150367E-4,.182E-5,0
STARLINK-6258,2023-061AR,2026-06-28T13:07:51.855744,15.27578711,.00017658,43.0042,281.4136,272.3435,87.7215,0,U,56413,999,17382,.84000505E-4,.205E-4,0
STARLINK-5136,2023-061AS,2026-06-28T14:01:18.805152,15.27578132,.00013265,43.0015,280.8290,276.3517,83.7183,0,U,56414,999,17383,.36413741E-4,.74E-5,0
STARLINK-6260,2023-061AU,2026-06-28T13:34:55.839648,15.27570199,.0001221,43.0015,273.6565,267.0265,93.0447,0,U,56416,999,17391,.49799465E-4,.1108E-4,0
STARLINK-6261,2023-061AV,2026-06-28T13:40:58.382688,15.27568984,.00012444,43.0053,280.7268,270.1127,89.9582,0,U,56417,999,17383,.30425153E-4,.575E-5,0
STARLINK-5356,2023-061AW,2026-06-28T14:22:48.133344,15.27587379,.00015169,43.0017,273.0402,267.1947,92.8731,0,U,56418,999,17392,.88394393E-4,.2172E-4,0
STARLINK-5350,2023-061AX,2026-06-28T14:06:52.731648,15.27569793,.00015604,43.0010,280.8621,268.8313,91.2360,0,U,56419,999,17383,-.42338431E-4,-.1427E-4,0
STARLINK-6272,2023-061AY,2026-06-27T18:09:55.594944,15.27542149,.00004954,42.9994,277.8988,299.6478,60.4325,0,U,56420,999,17379,.47691729E-3,.1287E-3,0
STARLINK-6270,2023-061AZ,2026-06-28T14:57:16.643520,15.27575848,.00008939,43.0033,276.6298,268.6285,91.4464,0,U,56421,999,17388,.29252345E-4,.543E-5,0
STARLINK-6236,2023-061BA,2026-06-28T14:48:43.844832,15.27574767,.00017192,43.0012,273.1762,271.8081,88.2574,0,U,56422,999,17392,.32502449E-4,.632E-5,0
STARLINK-6239,2023-061BB,2026-06-28T14:39:28.893312,15.27573523,.00012581,43.0022,273.1275,270.9591,89.1117,0,U,56423,999,17392,.24523711E-4,.413E-5,0
STARLINK-6242,2023-061BC,2026-06-28T14:59:49.838496,15.27576809,.00009558,43.0020,273.2349,280.6417,79.4327,0,U,56424,999,17392,.16904784E-4,.203E-5,0
STARLINK-6224,2023-061BD,2026-06-28T14:54:15.020352,15.27591203,.00013225,43.0008,273.2046,271.5624,88.5076,0,U,56425,999,17392,.83708078E-4,.2043E-4,0
STARLINK-5352,2023-061BE,2026-06-28T13:42:19.806912,15.27565001,.00012787,43.0007,273.6782,270.6415,89.4291,0,U,56426,999,17391,.12109468E-3,.307E-4,0
STARLINK-5724,2023-061BF,2026-06-28T13:46:01.492896,15.27576019,.00011226,43.0026,273.6963,290.0669,70.0062,0,U,56427,999,17391,.26907219E-4,.478E-5,0
STARLINK-6238,2023-061BG,2026-06-28T13:31:13.499616,15.27577814,.00011602,42.9997,273.6284,270.5570,89.5149,0,U,56428,999,17391,.32968236E-4,.645E-5,0
STARLINK-6264,2023-061BH,2026-06-28T13:36:46.666656,15.27573330,.00012496,43.0022,273.6562,269.7460,90.3249,0,U,56429,999,17391,.32454327E-4,.631E-5,0
STARLINK-5990,2023-064A,2026-06-28T13:45:57.236832,14.98328758,.00035937,69.9984,224.9444,267.1253,92.9495,0,U,56448,999,17185,.1779256E-5,-.72E-6,0
STARLINK-5993,2023-064B,2026-06-28T12:39:38.547072,14.98313200,.00032436,69.9984,225.1848,267.4082,92.6706,0,U,56449,999,17184,.2978274E-3,.3461E-4,0
STARLINK-5970,2023-064C,2026-06-28T12:03:48.500352,14.98329122,.00033971,69.9984,225.0985,268.2488,91.8282,0,U,56450,999,17184,.13742672E-4,.71E-6,0
STARLINK-5985,2023-064D,2026-06-28T12:33:37.498752,14.98330321,.00031882,69.9985,225.1698,271.4033,88.6760,0,U,56451,999,17184,.29023851E-4,.253E-5,0
STARLINK-5986,2023-064E,2026-06-28T12:27:37.043136,14.98328624,.00034369,69.9985,225.1559,269.0029,91.0737,0,U,56452,999,17184,-.14266811E-4,-.263E-5,0
STARLINK-5935,2023-064F,2026-06-28T12:21:34.354080,14.98346689,.00035807,69.9984,225.1404,269.4942,90.5807,0,U,56453,999,17184,.16709483E-3,.1902E-4,0
STARLINK-5959,2023-064G,2026-06-28T13:27:42.162624,14.98321414,.00037171,69.9981,224.9000,266.6154,93.4580,0,U,56454,999,17185,.52413957E-4,.532E-5,0
STARLINK-5987,2023-064H,2026-06-28T13:21:40.255488,14.98330899,.00036766,69.9983,224.8844,268.8535,91.2203,0,U,56455,999,17185,.32171091E-4,.291E-5,0
STARLINK-5995,2023-064J,2026-06-28T12:03:35.466912,14.98322994,.000364,69.9984,225.0968,267.5652,92.5091,0,U,56456,999,17184,-.7285608E-5,-.18E-5,0
STARLINK-5994,2023-064K,2026-06-28T11:57:33.373152,14.98331876,.00035512,69.9982,225.0815,269.6466,90.4286,0,U,56457,999,17184,.31065135E-4,.278E-5,0
STARLINK-6050,2023-064L,2026-06-28T13:45:42.803712,14.98330631,.00038311,69.9983,224.9417,268.8328,91.2393,0,U,56458,999,17185,.57405977E-4,.592E-5,0
STARLINK-6048,2023-064M,2026-06-28T12:57:51.989184,14.98330345,.00036598,69.9981,224.8281,268.8009,91.2731,0,U,56459,999,17184,.38389361E-4,.365E-5,0
